84P/Giclas,e,7.5508,108.1714,281.6277,3.550001,0.1473538,0.51609871,184.6693,11/10.0/2023,2000,g  9.5,8.0
# From unp
85D/Boethin,e,4.1741,65.2851,333.0589,5.043333,0.0870217,0.77635527,104.2336,11/10.0/2023,2000,g  6.5,8.0
# From MPEC 2022-YB4
86P/Wild,e,15.4920,72.1980,180.0955,3.614395,0.1434335,0.37198473,91.6925,11/10.0/2023,2000,g 11.0,6.0
# From MPEC 2020-SI8
87P/Bus,e,2.7995,187.7437,49.6366,4.218189,0.1137667,0.25798605,143.8141,11/10.0/2023,2000,g  7.2,10.0
# From MPEC 2023-J29
88P/Howell,e,4.3819,56.6652,235.9312,3.106867,0.1799783,0.56332805,205.2330,11/10.0/2023,2000,g 11.0,6.0
# From MPEC 2023-J29
89P/Russell,e,12.0722,41.3465,250.4015,3.752379,0.1355951,0.40789022,341.3413,11/10.0/2023,2000,g 11.5,6.0
# From MPEC 2022-K19
90P/Gehrels,e,9.6503,13.2198,29.0873,6.051552,0.0662070,0.51117802,154.3264,11/10.0/2023,2000,g  8.5,6.0
# From MPEC 2021-S45
91P/Russell,e,14.5520,244.7837,357.0817,3.882786,0.1288216,0.34457080,140.0463,11/10.0/2023,2000,g  7.5,6.0
# From MPEC 2014-J58
92P/Sanguin,e,19.4992,181.3789,163.8029,5.342698,0.0798111,0.66069699,252.8466,11/10.0/2023,2000,g 12.0,6.0
# From NK 2707
93P/Lovas,e,12.2041,339.5972,74.9144,4.378004,0.1075944,0.61393624,262.6495,11/10.0/2023,2000,g  9.0,4.0
# From MPEC 2023_O39
94P/Russell,e,6.1878,70.8522,92.4095,3.510419,0.1498531,0.36560598,25.9172,11/10.0/2023,2000,g  9.0,6.0
# From MPC 75717
95P/Chiron,e,6.9220,209.2001,339.4439,13.71237,0.0194104,0.37648470,198.1195,11/10.0/2023,2000,g  6.5,2.0
# From MPEC 2023-N01
96P/Machholz,e,57.5266,93.9533,14.7447,3.030689,0.1868065,0.96160461,52.8494,11/10.0/2023,2000,g 13.0,4.8
# From MPC106348
96P-B/Machholz,e,57.5060,14.7376,93.9472,3.030217,0.1868502,0.96160294,52.8616,11/10.0/2023,2000,g 13.0,4.8
# From MPC103849
96P-C/Machholz,e,58.5311,94.3495,15.5380,3.011920,0.1885553,0.95889850,359.8715,07/14.0/2012,2000,g  9.0,4.0
# From MPEC 2022-C56
97P/Metcalf-Brewington,e,17.9501,184.1178,230.0278,4.765012,0.0947563,0.46031352,59.8961,11/10.0/2023,2000,g  5.5,6.0
# From MPEC 2021-W31
98P/Takamizawa,e,10.5664,114.6526,157.7521,3.791123,0.1335218,0.56238940,138.8368,11/10.0/2023,2000,g  9.0,8.0
# From MPEC 2023-RF3
99P/Kowal,e,4.3396,28.0984,174.7218,6.098277,0.0654475,0.22854183,37.8534,11/10.0/2023,2000,g  4.5,6.0
# From MPEC 2023-OA6
100P/Hartley,e,25.5669,37.6869,181.9616,3.430596,0.1551135,0.41178522,70.7538,11/10.0/2023,2000,g  9.0,8.0
# From MPEC 2022-K19
101P/Chernykh,e,5.0497,116.2488,277.7733,5.812012,0.0703419,0.59635951,98.2359,11/10.0/2023,2000,g 10.0,4.8
# From MPC105241
101P-B/Chernykh,e,5.0500,278.5686,115.4560,5.827483,0.0700620,0.59657077,96.5991,11/10.0/2023,2000,g  9.0,4.0
# From MPEC 2022-C56
102P/Shoemaker,e,25.8763,339.4118,20.6498,3.817860,0.1321217,0.45680994,134.9520,11/10.0/2023,2000,g  6.5,8.0
# From MPEC 2023-V39
103P/Hartley,e,13.6107,219.7497,181.3011,3.475292,0.1521308,0.69381272,4.3339,11/10.0/2023,2000,g  8.5,8.0
# From MPEC 2023-G31
104P/Kowal,e,5.7034,207.2094,227.2505,3.208577,0.1714886,0.66581663,114.4131,11/10.0/2023,2000,g 16.0,4.0
# From MPC109147
105P/Singer Brewster,e,9.1679,192.3647,46.4141,3.470770,0.1524282,0.40884837,292.9463,11/10.0/2023,2000,g 11.5,6.0
# From MPEC 2023-UR6
106P/Schuster,e,19.5407,48.8618,353.7548,3.766532,0.1348315,0.59396852,109.6156,11/10.0/2023,2000,g 14.0,4.8
# From MPEC 2015-M77
107P/Wilson-Harrington,e,2.7987,266.7606,95.4773,2.624985,0.2317469,0.63153107,102.5173,11/10.0/2023,2000,g  9.0,4.0
# From MPEC 2022-P82
108P/Ciffreo,e,11.4363,50.2973,354.4848,3.741994,0.1361600,0.55612493,107.6544,11/10.0/2023,2000,g  8.0,12.0
# From  105, 420
109P/Swift-Tuttle,e,13.7406,139.3397,153.0138,26.20214,0.0073485,0.96209885,82.9931,11/10.0/2023,2000,g  4.0,6.0
# From MPEC 2023-KD6
110P/Hartley,e,11.7062,287.4992,167.4831,3.603876,0.1440619,0.31891288,108.3959,11/10.0/2023,2000,g  1.0,12.0
# From MPC 75718
111P/Helin-Roman-Crockett,e,4.2257,89.8166,1.1316,4.151719,0.1165097,0.10706046,102.0294,11/10.0/2023,2000,g  5.0,8.0
# From MPEC 2021-S45
112P/Urata-Niijima,e,24.2116,31.8370,21.4858,3.523872,0.1489957,0.59079510,204.0714,11/10.0/2023,2000,g 14.0,6.0
# From MPEC 2023-V39
113P/Spitaler,e,5.2882,306.6669,115.5982,3.693544,0.1388479,0.41995737,73.0830,11/10.0/2023,2000,g 13.5,4.0
# From MPEC 2023-A50
114P/Wiseman-Skiff,e,18.2977,271.0230,172.7557,3.542057,0.1478498,0.55579647,206.2398,11/10.0/2023,2000,g 11.5,6.0
# From MPEC 2023-J29
115P/Maury,e,11.6771,176.0113,120.9880,4.272266,0.1116135,0.51764859,133.8741,11/10.0/2023,2000,g 10.5,6.0
# From MPEC 2023-T65
116P/Wild,e,3.6034,20.9749,173.2234,3.488114,0.1512927,0.37030819,72.8166,11/10.0/2023,2000,g  2.5,10.0
# From MPEC 2023-V39
117P/Helin-Roman-Alu,e,8.7048,58.8188,223.2923,4.089384,0.1191838,0.25601609,58.2427,11/10.0/2023,2000,g  2.5,8.0
# From MPEC 2023-N01
118P/Shoemaker-Levy,e,10.0906,142.0917,314.8651,3.347795,0.1609036,0.45365802,56.4114,11/10.0/2023,2000,g 12.0,4.0
# From MPEC 2023-M14
119P/Parker-Hartley,e,7.3925,104.5638,322.1387,3.806586,0.1327091,0.38838511,60.3538,11/10.0/2023,2000,g 12.5,4.0
# From MPEC 2022-CN4
120P/Mueller,e,8.4883,358.7245,36.6836,3.967224,0.1247309,0.37482105,114.2820,11/10.0/2023,2000,g 12.0,4.0
# From MPEC 2023-D41
121P/Shoemaker-Holt,e,20.1636,94.1137,11.6986,4.584941,0.1003930,0.18639181,13.4523,11/10.0/2023,2000,g  6.5,8.0
# From MPC 75718
122P/de Vico,e,85.8555,79.7112,12.9902,17.62640,0.0133186,0.96241676,136.9565,11/10.0/2023,2000,g  7.5,5.2
# From MPEC 2021-F20
123P/West-Hartley,e,15.2790,45.9073,104.0365,3.881161,0.1289026,0.44426367,224.9258,11/10.0/2023,2000,g 12.2,4.0
# From MPEC 2023-T65
124P/Mrkos,e,31.4837,0.0913,185.2100,3.371698,0.1591956,0.48722748,207.6905,11/10.0/2023,2000,g 13.5,2.8
# From MPEC 2022-YB4
125P/Spacewatch,e,9.9851,153.1522,87.1443,3.129083,0.1780649,0.51210722,338.9342,11/10.0/2023,2000,g 13.0,6.0
# From MPEC 2023-V39
126P/IRAS,e,45.8718,357.8680,356.5895,5.636891,0.0736452,0.69655641,9.4035,11/10.0/2023,2000,g  6.0,8.0
# From MPEC 2023-D41
127P/Holt-Olmstead,e,14.3010,13.6053,6.2903,3.452447,0.1536433,0.35937750,70.1507,11/10.0/2023,2000,g 11.0,6.0
# From MPC 89014
128P/Shoemaker-Holt,e,4.3704,214.3430,210.3214,4.486295,0.1037224,0.32227867,258.4279,11/10.0/2023,2000,g  8.5,4.0
# From MPEC 2023-M14
129P/Shoemaker-Levy,e,3.4424,184.8608,307.4794,4.290717,0.1108943,0.08539592,38.2199,11/10.0/2023,2000,g 11.0,4.0
# From MPEC 2023-M14
130P/McNaught-Hughes,e,6.0636,70.1785,246.1226,3.381848,0.1584795,0.46094885,335.1396,11/10.0/2023,2000,g 10.0,6.0
# From MPC102101
131P/Mueller,e,7.3608,214.1788,179.0946,3.677504,0.1397572,0.34491121,244.2520,11/10.0/2023,2000,g 11.0,4.0
# From MPEC 2022-TD3
132P/Helin-Roman-Alu,e,5.3824,174.0329,216.3977,3.889777,0.1284745,0.56467269,93.3680,11/10.0/2023,2000,g 11.0,6.0
# From MPC 94676
133P/Elst-Pizarro,e,1.3897,160.1034,131.9176,3.164890,0.1750516,0.15615561,328.0827,11/10.0/2023,2000,g 15.4,2.0
# From MPC 89012
134P/Kowal-Vavrova,e,4.3349,202.0115,18.8065,6.266499,0.0628299,0.58500663,218.2386,11/10.0/2023,2000,g 11.5,4.0
# From MPEC 2022-OB6
135P/Shoemaker-Levy,e,6.0637,213.0212,22.3750,3.800141,0.1330468,0.29439863,77.3825,11/10.0/2023,2000,g  7.0,8.0
# From MPEC 2022-K19
136P/Mueller,e,9.4271,137.4987,225.1272,4.187116,0.1150354,0.29334384,311.6731,11/10.0/2023,2000,g 11.0,4.0
# From MPEC 2023-J29
137P/Shoemaker-Levy,e,4.8599,232.9289,141.2050,4.522010,0.1024960,0.57372200,183.5343,11/10.0/2023,2000,g 11.0,4.0
# From MPEC 2016-U66
138P/Shoemaker-Levy,e,10.0947,309.3025,95.6012,3.619320,0.1431409,0.53159432,236.1688,11/10.0/2023,2000,g 15.0,6.0
# From MPEC 2020-HN5
139P/Vaisala-Oterma,e,2.3371,242.1790,165.8071,4.516776,0.1026742,0.24826784,221.4197,11/10.0/2023,2000,g  9.5,4.0
# From MPEC 2015-E14
140P/Bowell-Skiff,e,3.8157,343.2877,172.4801,6.406429,0.0607827,0.69579083,183.9087,11/10.0/2023,2000,g 11.5,6.0
# From MPEC 2022-K19
141P/Machholz,e,13.9540,241.8119,153.5954,3.057563,0.1843490,0.73611362,195.0620,11/10.0/2023,2000,g 12.0,12.0
# From MPEC 2015-KD9
141P-A/Machholz,e,13.9449,153.5674,241.8540,3.057701,0.1843366,0.73610730,195.0162,11/10.0/2023,2000,g 12.0,12.0
# From MPC 24216
141P-B/Machholz,e,13.9888,153.6430,241.7433,3.056094,0.1844820,0.73586484,196.3572,11/10.0/2023,2000,g  9.0,4.0
# From MPC 37026
141P-D/Machholz,e,13.8370,153.2944,242.1015,3.066141,0.1835760,0.73706359,191.0669,11/10.0/2023,2000,g  9.0,4.0
# From MPEC 2015-R12
141P-E/Machholz,e,12.8152,246.1856,149.2667,3.012914,0.1884620,0.75023267,359.9529,09/19.0/1994,2000,g  9.0,4.0
# From MPEC 2015-R12
141P-F/Machholz,e,12.7898,246.1881,149.2374,3.010224,0.1887147,0.75000946,359.9630,09/19.0/1994,2000,g  9.0,4.0
# From MPEC 2015-R12
141P-G/Machholz,e,12.8259,246.3146,149.0784,3.005818,0.1891298,0.74964304,359.9802,09/19.0/1994,2000,g  9.0,4.0
# From MPC 95735
141P-H/Machholz,e,12.8431,246.0900,149.4500,3.008012,0.1889230,0.74682218,359.9270,08/24.0/2015,2000,g 18.5,4.0
# From MPEC 2022-SU8
141P-I/Machholz,e,13.9448,153.5216,241.8643,3.048185,0.1852005,0.73533239,196.0431,11/10.0/2023,2000,g 17.5,4.0
# From MPEC 2021-Y10
142P/Ge-Wang,e,12.2506,175.9713,174.0298,5.001938,0.0881042,0.49680780,80.2980,11/10.0/2023,2000,g  8.5,6.0
# From MPEC 2023-UR6
143P/Kowal-Mrkos,e,4.8244,244.3816,320.6227,4.258961,0.1121369,0.41985609,225.9802,11/10.0/2023,2000,g 13.5,2.0
# From MPEC 2023-V39
144P/Kushida,e,3.9318,242.9250,216.3203,3.832293,0.1313760,0.63498422,349.9146,11/10.0/2023,2000,g  8.5,8.0
# From MPC108598
145P/Shoemaker-Levy,e,11.2785,26.8187,10.2905,4.134009,0.1172592,0.54260043,264.5858,11/10.0/2023,2000,g 13.5,4.0
# From MPC100284
146P/Shoemaker-LINEAR,e,23.1172,53.4201,317.0141,4.027101,0.1219594,0.64748096,327.1353,11/10.0/2023,2000,g 15.0,4.0
# From MPC 75720
147P/Kushida-Muramatsu,e,2.2911,92.1166,348.1026,4.013728,0.1225694,0.21305277,356.6824,11/10.0/2023,2000,g 14.0,4.0
# From MPEC 2023-HD1
148P/Anderson-LINEAR,e,3.6584,89.1993,8.0463,3.619491,0.1431307,0.55014447,73.6004,11/10.0/2023,2000,g 16.2,4.0
# From MPEC 2023-J29
